[{"OBJECT_NAME":"TROLL","OBJECT_ID":"2025-009BB","EPOCH":"2026-03-09T05:24:19.835712","MEAN_MOTION":15.28164315,"ECCENTRICITY":0.00018165,"INCLINATION":97.3932,"RA_OF_ASC_NODE":150.7169,"ARG_OF_PERICENTER":59.185,"MEAN_ANOMALY":300.9568,"EPHEMERIS_TYPE":0,"CLASSIFICATION_TYPE":"U","NORAD_CAT_ID":62658,"ELEMENT_SET_NO":999,"REV_AT_EPOCH":11817,"BSTAR":0.00048220305,"MEAN_MOTION_DOT":0.00013174,"MEAN_MOTION_DDOT":0},{"OBJECT_NAME":"STARLINK-36180","OBJECT_ID":"2025-299N","EPOCH":"2026-03-09T07:05:29.051232","MEAN_MOTION":15.28423882,"ECCENTRICITY":0.00011024,"INCLINATION":42.9978,"RA_OF_ASC_NODE":171.4194,"ARG_OF_PERICENTER":319.3332,"MEAN_ANOMALY":40.7437,"EPHEMERIS_TYPE":0,"CLASSIFICATION_TYPE":"U","NORAD_CAT_ID":67114,"ELEMENT_SET_NO":999,"REV_AT_EPOCH":1305,"BSTAR":0.00095247551,"MEAN_MOTION_DOT":0.00026728,"MEAN_MOTION_DDOT":0}]
